CCSDS_OMM_VERS = 2.0
CREATION_DATE  = 
ORIGINATOR     = 

OBJECT_NAME    = STARLINK-35323
OBJECT_ID      = 2025-235P
CENTER_NAME    = EARTH
REF_FRAME      = TEME
TIME_SYSTEM    = UTC
MEAN_ELEMENT_THEORY = SGP/SGP4

EPOCH          = 2025-11-08T12:00:00.998784
MEAN_MOTION    = 15.53126858
ECCENTRICITY   = .000117
INCLINATION    = 53.1608
RA_OF_ASC_NODE = 90.8012
ARG_OF_PERICENTER = 76.3216
MEAN_ANOMALY   = 147.1756

EPHEMERIS_TYPE = 0
CLASSIFICATION_TYPE = U
NORAD_CAT_ID   = 66071
ELEMENT_SET_NO = 999
REV_AT_EPOCH   = 437
BSTAR          = -.3596E-1
MEAN_MOTION_DOT = -.2044618E-1
MEAN_MOTION_DDOT = 0

CCSDS_OMM_VERS = 2.0
CREATION_DATE  = 
ORIGINATOR     = 

OBJECT_NAME    = STARLINK-35299
OBJECT_ID      = 2025-235Q
CENTER_NAME    = EARTH
REF_FRAME      = TEME
TIME_SYSTEM    = UTC
MEAN_ELEMENT_THEORY = SGP/SGP4

EPOCH          = 2025-11-08T12:00:00.998784
MEAN_MOTION    = 15.53120697
ECCENTRICITY   = .000124
INCLINATION    = 53.1606
RA_OF_ASC_NODE = 90.7930
ARG_OF_PERICENTER = 83.3628
MEAN_ANOMALY   = 143.9698

EPHEMERIS_TYPE = 0
CLASSIFICATION_TYPE = U
NORAD_CAT_ID   = 66072
ELEMENT_SET_NO = 999
REV_AT_EPOCH   = 437
BSTAR          = -.35754E-1
MEAN_MOTION_DOT = -.203382E-1
MEAN_MOTION_DDOT = 0

CCSDS_OMM_VERS = 2.0
CREATION_DATE  = 
ORIGINATOR     = 

OBJECT_NAME    = STARLINK-35274
OBJECT_ID      = 2025-235R
CENTER_NAME    = EARTH
REF_FRAME      = TEME
TIME_SYSTEM    = UTC
MEAN_ELEMENT_THEORY = SGP/SGP4

EPOCH          = 2025-11-08T12:00:00.998784
MEAN_MOTION    = 15.53120500
ECCENTRICITY   = .0001252
INCLINATION    = 53.1607
RA_OF_ASC_NODE = 90.7889
ARG_OF_PERICENTER = 77.6626
MEAN_ANOMALY   = 151.5861

EPHEMERIS_TYPE = 0
CLASSIFICATION_TYPE = U
NORAD_CAT_ID   = 66073
ELEMENT_SET_NO = 999
REV_AT_EPOCH   = 437
BSTAR          = -.35735E-1
MEAN_MOTION_DOT = -.2032851E-1
MEAN_MOTION_DDOT = 0

CCSDS_OMM_VERS = 2.0
CREATION_DATE  = 
ORIGINATOR     = 

OBJECT_NAME    = STARLINK-35321
OBJECT_ID      = 2025-235S
CENTER_NAME    = EARTH
REF_FRAME      = TEME
TIME_SYSTEM    = UTC
MEAN_ELEMENT_THEORY = SGP/SGP4

EPOCH          = 2025-11-08T12:00:00.998784
MEAN_MOTION    = 15.53122942
ECCENTRICITY   = .0001171
INCLINATION    = 53.1610
RA_OF_ASC_NODE = 90.7845
ARG_OF_PERICENTER = 74.9790
MEAN_ANOMALY   = 156.1852

EPHEMERIS_TYPE = 0
CLASSIFICATION_TYPE = U
NORAD_CAT_ID   = 66074
ELEMENT_SET_NO = 999
REV_AT_EPOCH   = 437
BSTAR          = -.35829E-1
MEAN_MOTION_DOT = -.2037734E-1
MEAN_MOTION_DDOT = 0

CCSDS_OMM_VERS = 2.0
CREATION_DATE  = 
ORIGINATOR     = 

OBJECT_NAME    = STARLINK-35131
OBJECT_ID      = 2025-235T
CENTER_NAME    = EARTH
REF_FRAME      = TEME
TIME_SYSTEM    = UTC
MEAN_ELEMENT_THEORY = SGP/SGP4

EPOCH          = 2025-11-08T12:00:00.998784
MEAN_MOTION    = 15.53119082
ECCENTRICITY   = .0001219
INCLINATION    = 53.1613
RA_OF_ASC_NODE = 90.7711
ARG_OF_PERICENTER = 74.6621
MEAN_ANOMALY   = 162.2549

EPHEMERIS_TYPE = 0
CLASSIFICATION_TYPE = U
NORAD_CAT_ID   = 66075
ELEMENT_SET_NO = 999
REV_AT_EPOCH   = 437
BSTAR          = -.35677E-1
MEAN_MOTION_DOT = -.202978E-1
MEAN_MOTION_DDOT = 0

CCSDS_OMM_VERS = 2.0
CREATION_DATE  = 
ORIGINATOR     = 

OBJECT_NAME    = STARLINK-34801
OBJECT_ID      = 2025-235U
CENTER_NAME    = EARTH
REF_FRAME      = TEME
TIME_SYSTEM    = UTC
MEAN_ELEMENT_THEORY = SGP/SGP4

EPOCH          = 2025-11-08T12:00:00.998784
MEAN_MOTION    = 15.53124779
ECCENTRICITY   = .0001226
INCLINATION    = 53.1612
RA_OF_ASC_NODE = 90.7805
ARG_OF_PERICENTER = 81.4857
MEAN_ANOMALY   = 151.5872

EPHEMERIS_TYPE = 0
CLASSIFICATION_TYPE = U
NORAD_CAT_ID   = 66076
ELEMENT_SET_NO = 999
REV_AT_EPOCH   = 437
BSTAR          = -.35706E-1
MEAN_MOTION_DOT = -.2031637E-1
MEAN_MOTION_DDOT = 0

CCSDS_OMM_VERS = 2.0
CREATION_DATE  = 
ORIGINATOR     = 

OBJECT_NAME    = STARLINK-35129
OBJECT_ID      = 2025-235V
CENTER_NAME    = EARTH
REF_FRAME      = TEME
TIME_SYSTEM    = UTC
MEAN_ELEMENT_THEORY = SGP/SGP4

EPOCH          = 2025-11-08T12:00:00.998784
MEAN_MOTION    = 15.53117530
ECCENTRICITY   = .0001344
INCLINATION    = 53.1612
RA_OF_ASC_NODE = 90.7762
ARG_OF_PERICENTER = 82.2313
MEAN_ANOMALY   = 152.7689

EPHEMERIS_TYPE = 0
CLASSIFICATION_TYPE = U
NORAD_CAT_ID   = 66077
ELEMENT_SET_NO = 999
REV_AT_EPOCH   = 437
BSTAR          = -.356E-1
MEAN_MOTION_DOT = -.2025848E-1
MEAN_MOTION_DDOT = 0

CCSDS_OMM_VERS = 2.0
CREATION_DATE  = 
ORIGINATOR     = 

OBJECT_NAME    = STARLINK-35116
OBJECT_ID      = 2025-235W
CENTER_NAME    = EARTH
REF_FRAME      = TEME
TIME_SYSTEM    = UTC
MEAN_ELEMENT_THEORY = SGP/SGP4

EPOCH          = 2025-11-08T12:00:00.998784
MEAN_MOTION    = 15.53117821
ECCENTRICITY   = .0001231
INCLINATION    = 53.1614
RA_OF_ASC_NODE = 90.7631
ARG_OF_PERICENTER = 75.0720
MEAN_ANOMALY   = 165.6776

EPHEMERIS_TYPE = 0
CLASSIFICATION_TYPE = U
NORAD_CAT_ID   = 66078
ELEMENT_SET_NO = 999
REV_AT_EPOCH   = 437
BSTAR          = -.35622E-1
MEAN_MOTION_DOT = -.2026926E-1
MEAN_MOTION_DDOT = 0

CCSDS_OMM_VERS = 2.0
CREATION_DATE  = 
ORIGINATOR     = 

OBJECT_NAME    = STARLINK-35402
OBJECT_ID      = 2025-235X
CENTER_NAME    = EARTH
REF_FRAME      = TEME
TIME_SYSTEM    = UTC
MEAN_ELEMENT_THEORY = SGP/SGP4

EPOCH          = 2025-11-08T12:00:00.998784
MEAN_MOTION    = 15.53114350
ECCENTRICITY   = .0001388
INCLINATION    = 53.1612
RA_OF_ASC_NODE = 90.7595
ARG_OF_PERICENTER = 84.7940
MEAN_ANOMALY   = 157.8735

EPHEMERIS_TYPE = 0
CLASSIFICATION_TYPE = U
NORAD_CAT_ID   = 66079
ELEMENT_SET_NO = 999
REV_AT_EPOCH   = 437
BSTAR          = -.35487E-1
MEAN_MOTION_DOT = -.2019889E-1
MEAN_MOTION_DDOT = 0

CCSDS_OMM_VERS = 2.0
CREATION_DATE  = 
ORIGINATOR     = 

OBJECT_NAME    = STARLINK-35325
OBJECT_ID      = 2025-235Y
CENTER_NAME    = EARTH
REF_FRAME      = TEME
TIME_SYSTEM    = UTC
MEAN_ELEMENT_THEORY = SGP/SGP4

EPOCH          = 2025-11-08T12:00:00.998784
MEAN_MOTION    = 15.53115091
ECCENTRICITY   = .0001265
INCLINATION    = 53.1611
RA_OF_ASC_NODE = 90.7664
ARG_OF_PERICENTER = 73.9437
MEAN_ANOMALY   = 164.8896

EPHEMERIS_TYPE = 0
CLASSIFICATION_TYPE = U
NORAD_CAT_ID   = 66080
ELEMENT_SET_NO = 999
REV_AT_EPOCH   = 437
BSTAR          = -.35532E-1
MEAN_MOTION_DOT = -.2022197E-1
MEAN_MOTION_DDOT = 0

CCSDS_OMM_VERS = 2.0
CREATION_DATE  = 
ORIGINATOR     = 

OBJECT_NAME    = STARLINK-35403
OBJECT_ID      = 2025-235Z
CENTER_NAME    = EARTH
REF_FRAME      = TEME
TIME_SYSTEM    = UTC
MEAN_ELEMENT_THEORY = SGP/SGP4

EPOCH          = 2025-11-08T12:00:00.998784
MEAN_MOTION    = 15.53111128
ECCENTRICITY   = .0001358
INCLINATION    = 53.1608
RA_OF_ASC_NODE = 90.7528
ARG_OF_PERICENTER = 84.7173
MEAN_ANOMALY   = 161.7850

EPHEMERIS_TYPE = 0
CLASSIFICATION_TYPE = U
NORAD_CAT_ID   = 66081
ELEMENT_SET_NO = 999
REV_AT_EPOCH   = 437
BSTAR          = -.35407E-1
MEAN_MOTION_DOT = -.2015597E-1
MEAN_MOTION_DDOT = 0

CCSDS_OMM_VERS = 2.0
CREATION_DATE  = 
ORIGINATOR     = 

OBJECT_NAME    = STARLINK-35011
OBJECT_ID      = 2025-235AA
CENTER_NAME    = EARTH
REF_FRAME      = TEME
TIME_SYSTEM    = UTC
MEAN_ELEMENT_THEORY = SGP/SGP4

EPOCH          = 2025-11-08T12:00:00.998784
MEAN_MOTION    = 15.53110361
ECCENTRICITY   = .0001316
INCLINATION    = 53.1607
RA_OF_ASC_NODE = 90.7548
ARG_OF_PERICENTER = 88.7244
MEAN_ANOMALY   = 155.8667

EPHEMERIS_TYPE = 0
CLASSIFICATION_TYPE = U
NORAD_CAT_ID   = 66082
ELEMENT_SET_NO = 999
REV_AT_EPOCH   = 437
BSTAR          = -.35472E-1
MEAN_MOTION_DOT = -.2018823E-1
MEAN_MOTION_DDOT = 0

