STARLINK-35323          
1 66071U 25235P   25312.50001156 -.02044618  00000+0 -35960-1 0  9998
2 66071  53.1608  90.8012 0001170  76.3216 147.1756 15.53126858  4378
STARLINK-35299          
1 66072U 25235Q   25312.50001156 -.02033820  00000+0 -35754-1 0  9993
2 66072  53.1606  90.7930 0001240  83.3628 143.9698 15.53120697  4372
STARLINK-35274          
1 66073U 25235R   25312.50001156 -.02032851  00000+0 -35735-1 0  9996
2 66073  53.1607  90.7889 0001252  77.6626 151.5861 15.53120500  4374
STARLINK-35321          
1 66074U 25235S   25312.50001156 -.02037734  00000+0 -35829-1 0  9996
2 66074  53.1610  90.7845 0001171  74.9790 156.1852 15.53122942  4376
STARLINK-35131          
1 66075U 25235T   25312.50001156 -.02029780  00000+0 -35677-1 0  9990
2 66075  53.1613  90.7711 0001219  74.6621 162.2549 15.53119082  4377
STARLINK-34801          
1 66076U 25235U   25312.50001156 -.02031637  00000+0 -35706-1 0  9998
2 66076  53.1612  90.7805 0001226  81.4857 151.5872 15.53124779  4375
STARLINK-35129          
1 66077U 25235V   25312.50001156 -.02025848  00000+0 -35600-1 0  9999
2 66077  53.1612  90.7762 0001344  82.2313 152.7689 15.53117530  4371
STARLINK-35116          
1 66078U 25235W   25312.50001156 -.02026926  00000+0 -35622-1 0  9992
2 66078  53.1614  90.7631 0001231  75.0720 165.6776 15.53117821  4379
STARLINK-35402          
1 66079U 25235X   25312.50001156 -.02019889  00000+0 -35487-1 0  9992
2 66079  53.1612  90.7595 0001388  84.7940 157.8735 15.53114350  4373
STARLINK-35325          
1 66080U 25235Y   25312.50001156 -.02022197  00000+0 -35532-1 0  9991
2 66080  53.1611  90.7664 0001265  73.9437 164.8896 15.53115091  4375
STARLINK-35403          
1 66081U 25235Z   25312.50001156 -.02015597  00000+0 -35407-1 0  9999
2 66081  53.1608  90.7528 0001358  84.7173 161.7850 15.53111128  4374
STARLINK-35011          
1 66082U 25235AA  25312.50001156 -.02018823  00000+0 -35472-1 0  9997
2 66082  53.1607  90.7548 0001316  88.7244 155.8667 15.53110361  4371
